CUBEBUG-2 (LO-74)       
1 39440U 13066AA  26192.31050647  .00001843  00000+0  17366-3 0  9993
2 39440  97.8909 141.3951 0056043 308.5622  51.0583 14.93951590680598
FUNCUBE-1 (AO-73)       
1 39444U 13066AE  26191.98474830  .00004079  00000+0  25254-3 0  9992
2 39444  97.8286 163.9335 0037927 121.2536 239.2417 15.09785992683251
UWE-3                   
1 39446U 13066AG  26192.34365257  .00001839  00000+0  16088-3 0  9993
2 39446  97.8697 148.5848 0047530 237.9674 121.6926 14.97184048681197
UNISAT-6                
1 40012U 14033C   26192.47115906  .00001020  00000+0  11426-3 0  9990
2 40012  97.7900 344.7605 0044456 350.1970   9.8375 14.88357634649772
DUCHIFAT-1              
1 40021U 14033M   26192.41130691  .00099078  00000+0  80962-3 0  9993
2 40021  98.0442 255.0791 0002055 250.9446 109.1592 15.70259500659547
QB50P1                  
1 40025U 14033R   26192.53242477  .00004864  00000+0  23840-3 0  9997
2 40025  98.0966 205.3912 0010169 135.6881 224.5167 15.18630137656720
LILACSAT-2              
1 40908U 15049K   26192.45283257  .00012372  00000+0  20505-3 0  9995
2 40908  97.4632 230.2255 0008142 152.4759 207.6926 15.52267007599517
FOX-1A (AO-85)          
1 40967U 15058D   26192.02911053  .00001601  00000+0  15193-3 0  9995
2 40967  64.7731 204.8837 0132046  47.3799 313.8357 14.91072604117129
CAS-2T & KS-1Q          
1 41847U 16066G   26192.20370804  .00000690  00000+0  10470-3 0  9996
2 41847  98.3814 267.6651 0342449  56.8459 306.5094 14.44765066508266
RADFXSAT (FOX-1B)       
1 43017U 17073E   26192.08484625  .00003616  00000+0  15974-3 0  9994
2 43017  97.4682  58.8129 0148032 245.7914 112.7786 15.13028349469003
DIWATA-2B               
1 43678U 18084H   26192.51005833  .00001264  00000+0  10525-3 0  9992
2 43678  98.1221  29.7830 0013001  95.8477 264.4228 15.00554320419868
ES'HAIL 2               
1 43700U 18090A   26192.49876646  .00000000  00000+0  00000+0 0  9990
2 43700   0.0261  38.7295 0002189 121.5840 334.4474  1.00269294 27922
FOX-1CLIFF (AO-95)      
1 43770U 18099N   26192.12777209  .00006872  00000+0  26022-3 0  9990
2 43770  97.4378 252.2917 0007011 257.0089 103.0367 15.27218021416874
ITASAT                  
1 43786U 18099AE  26192.12862951  .00003615  00000+0  17404-3 0  9992
2 43786  97.4021 243.1647 0010761 266.8615  93.1389 15.19350764416543
JY1SAT (JO-97)          
1 43803U 18099AX  26191.96988250  .00010834  00000+0  32704-3 0  9995
2 43803  97.4124 254.8968 0006447 171.3514 188.7841 15.34427741417278
UWE-4                   
1 43880U 18111E   26190.27481266  .00027640  00000+0  53768-3 0  9999
2 43880  97.5841 119.7053 0005270 218.3666 141.7210 15.47549208414191
TIANYAN 01              
1 44881U 19093C   26192.47889659  .00000385  00000+0  49413-4 0  9993
2 44881  97.7523 264.1178 0013884  13.4132 346.7450 14.86556172355026
RS-44 & BREEZE-KM R/B   
1 44909U 19096E   26192.47575987 -.00000003  00000+0 -66211-4 0  9997
2 44909  82.5239 323.5653 0218576  87.6470 274.9636 12.79748967305459
SALSAT                  
1 46495U 20068K   26192.47522477  .00004471  00000+0  15610-3 0  9993
2 46495  97.8856 197.0247 0008815 206.7694 153.3092 15.30138870319078
XW-3 (CAS-9)            
1 50466U 21131B   26192.55938928  .00000413  00000+0  14118-3 0  9993
2 50466  98.4983 284.8179 0004815  40.1738 319.9806 14.41380445238625
GREENCUBE (IO-117)      
1 53109U 22080E   26192.30794325 -.00000003  00000+0  00000+0 0  9995
2 53109  70.1420 289.8579 0009046 284.3679  75.5976  6.42583311 93611
UMKA 1 (RS40S)          
1 57172U 23091G   26192.43623120  .00003778  00000+0  17272-3 0  9994
2 57172  97.5042 251.0422 0013395  41.9402 318.2857 15.21095120167697
CUBESX-HSE 3 (RS42S)    
1 57178U 23091N   26192.41373448  .00008030  00000+0  26353-3 0  9999
2 57178  97.5086 258.3149 0010067  15.5892 344.5658 15.31824809168136
MONITOR-3 (RS58S)       
1 57180U 23091Q   26192.42714696  .00005969  00000+0  21879-3 0  9993
2 57180  97.5078 256.0567 0011412  22.7933 337.3811 15.28326165167992
MONITOR-4 (RS57S)       
1 57182U 23091S   26192.47032507  .00006247  00000+0  22823-3 0  9994
2 57182  97.5072 256.0727 0011412  23.0468 337.1281 15.28412723168001
MONITOR-2 (RS39S)       
1 57184U 23091U   26192.48833939  .00002846  00000+0  13856-3 0  9992
2 57184  97.5063 250.6153 0011749  36.1448 324.0578 15.19133419167647
SVYATOBOR 1 (RS60S)     
1 57187U 23091X   26192.50487358  .00005240  00000+0  20026-3 0  9996
2 57187  97.5082 256.4608 0009120  17.5045 342.6507 15.27024280168021
VIZARD-METEO (RS38S)    
1 57189U 23091Z   26192.44067197  .00009874  00000+0  27673-3 0  9998
2 57189  97.5086 262.4229 0005991 355.1058   5.0126 15.36796816168411
POLYTECH-UNIVERSE 3 (R*)
1 57191U 23091AB  26192.44638056  .00003220  00000+0  15514-3 0  9999
2 57191  97.5039 250.0778 0016413  49.9933 310.2739 15.19344910167634
UTMN 2 (RS27S)          
1 57203U 23091AP  26192.48353458  .00007683  00000+0  24610-3 0  9991
2 57203  97.5083 260.0490 0007117   4.1225 356.0074 15.32644642168267
